{
    "links": {
        "self": "http://www.neowsapp.com/rest/v1/neo/3698515?api_key=iIulBulltgU6a56xZRHN4H3l9WmuAYTsLGpBGhQ2"
    },
    "id": "3698515",
    "neo_reference_id": "3698515",
    "name": "(2014 HQ197)",
    "designation": "2014 HQ197",
    "nasa_jpl_url": "http://ssd.jpl.nasa.gov/sbdb.cgi?sstr=3698515",
    "absolute_magnitude_h": 25.6,
    "estimated_diameter": {
        "kilometers": {
            "estimated_diameter_min": 0.0201629919,
            "estimated_diameter_max": 0.0450858206
        },
        "meters": {
            "estimated_diameter_min": 20.1629919443,
            "estimated_diameter_max": 45.0858206172
        },
        "miles": {
            "estimated_diameter_min": 0.0125286985,
            "estimated_diameter_max": 0.0280150214
        },
        "feet": {
            "estimated_diameter_min": 66.1515504905,
            "estimated_diameter_max": 147.9193637137
        }
    },
    "is_potentially_hazardous_asteroid": false,
    "close_approach_data": [
        {
            "close_approach_date": "2014-04-20",
            "close_approach_date_full": "2014-Apr-20 11:18",
            "epoch_date_close_approach": 1397992680000,
            "relative_velocity": {
                "kilometers_per_second": "8.1797164589",
                "kilometers_per_hour": "29446.9792521265",
                "miles_per_hour": "18297.2077469671"
            },
            "miss_distance": {
                "astronomical": "0.0910638194",
                "lunar": "35.4238257466",
                "kilometers": "13622953.416304678",
                "miles": "8464910.7297654364"
            },
            "orbiting_body": "Earth"
        }
    ],
    "orbital_data": {
        "orbit_id": "3",
        "orbit_determination_date": "2017-04-06 08:40:56",
        "first_observation_date": "2014-04-24",
        "last_observation_date": "2014-05-02",
        "data_arc_in_days": 8,
        "observations_used": 53,
        "orbit_uncertainty": "9",
        "minimum_orbit_intersection": ".091016",
        "jupiter_tisserand_invariant": "3.610",
        "epoch_osculation": "2456775.5",
        "eccentricity": ".4707385267649106",
        "semi_major_axis": "2.063143898226214",
        "inclination": "11.72633493615426",
        "ascending_node_longitude": "33.10096512967147",
        "orbital_period": "1082.412269679667",
        "perihelion_distance": "1.091942579071191",
        "perihelion_argument": "169.3665950791726",
        "aphelion_distance": "3.034345217381236",
        "perihelion_time": "2456760.897369130350",
        "mean_anomaly": "4.856695789885826",
        "mean_motion": ".3325904649127266",
        "equinox": "J2000",
        "orbit_class": {
            "orbit_class_type": "AMO",
            "orbit_class_description": "Near-Earth asteroid orbits similar to that of 1221 Amor",
            "orbit_class_range": "1.017 AU < q (perihelion) < 1.3 AU"
        }
    },
    "is_sentry_object": false
}